NORAD_CAT_ID,OBJECT_NAME,OBJECT_TYPE,EPOCH,MEAN_MOTION,ECCENTRICITY,INCLINATION,RA_OF_ASC_NODE,ARG_OF_PERICENTER,MEAN_ANOMALY,BSTAR,MEAN_MOTION_DOT,MEAN_MOTION_DDOT,TLE_LINE0,TLE_LINE1,TLE_LINE2,SEMIMAJOR_AXIS,PERIOD,APOGEE,PERIGEE,DECAYED
51793.0,STARLINK-3633,PAYLOAD,2023-02-06 07:25:47,15.08849483,0.0001301,53.2162,10.1338,99.615,260.4989,0.0001064,1.406e-05,0.0,0 STARLINK-3633,1 51793U 22017AB  23037.30958160  .00001406  00000-0  10640-3 0  9999,2 51793  53.2162  10.1338 0001301  99.6150 260.4989 15.08849483 53777,6917.851,95.437,540.616,538.816,0.0
51793.0,STARLINK-3633,PAYLOAD,2023-02-06 21:44:16,15.08839567,0.0001332,53.2167,7.4562,95.5818,264.5326,6.6666e-05,7.73e-06,0.0,0 STARLINK-3633,1 51793U 22017AB  23037.90575004  .00000773  00000-0  66666-4 0  9993,2 51793  53.2167   7.4562 0001332  95.5818 264.5326 15.08839567 53862,6917.882,95.438,540.668,538.825,0.0
51793.0,STARLINK-3633,PAYLOAD,2023-02-07 04:05:48,15.08846312,0.0001254,53.2162,6.2704,85.7506,274.3629,0.00010939,1.454e-05,0.0,0 STARLINK-3633,1 51793U 22017AB  23038.17070397  .00001454  00000-0  10939-3 0  9996,2 51793  53.2162   6.2704 0001254  85.7506 274.3629 15.08846312 53906,6917.861,95.437,540.594,538.859,0.0
51793.0,STARLINK-3633,PAYLOAD,2023-02-07 07:16:34,15.08856024,0.0001315,53.2165,5.6718,94.0801,266.0342,0.00019919,2.885e-05,0.0,0 STARLINK-3633,1 51793U 22017AB  23038.30317466  .00002885  00000-0  19919-3 0  9998,2 51793  53.2165   5.6718 0001315  94.0801 266.0342 15.08856024 53929,6917.831,95.437,540.606,538.787,0.0
51793.0,STARLINK-3633,PAYLOAD,2023-02-08 07:07:20,15.08864126,0.0001239,53.2169,1.2127,99.8353,260.2779,9.475e-05,1.221e-05,0.0,0 STARLINK-3633,1 51793U 22017AB  23039.29676880  .00001221  00000-0  94750-4 0  9995,2 51793  53.2169   1.2127 0001239  99.8353 260.2779 15.08864126 54078,6917.807,95.436,540.529,538.815,0.0
51793.0,STARLINK-3633,PAYLOAD,2023-02-09 06:58:08,15.08851366,0.0001154,53.2169,356.7519,84.6534,275.459,-1.4475e-05,-5.18e-06,0.0,0 STARLINK-3633,1 51793U 22017AB  23040.29038079 -.00000518  00000-0 -14475-4 0  9995,2 51793  53.2169 356.7519 0001154  84.6534 275.4590 15.08851366 54228,6917.846,95.437,540.509,538.912,0.0
51793.0,STARLINK-3633,PAYLOAD,2023-02-10 03:38:08,15.08863545,9.44e-05,53.2167,352.8864,102.5391,257.5707,0.00011397,1.528e-05,0.0,0 STARLINK-3633,1 51793U 22017AB  23041.15149087  .00001528  00000-0  11397-3 0  9992,2 51793  53.2167 352.8864 0000944 102.5391 257.5707 15.08863545 54350,6917.808,95.436,540.326,539.02,0.0
51793.0,STARLINK-3633,PAYLOAD,2023-02-10 05:13:31,15.08865612,0.0001087,53.2167,352.5881,103.8797,256.2316,0.00016841,2.395e-05,0.0,0 STARLINK-3633,1 51793U 22017AB  23041.21772788  .00002395  00000-0  16841-3 0  9991,2 51793  53.2167 352.5881 0001087 103.8797 256.2316 15.08865612 54369,6917.802,95.436,540.419,538.915,0.0
51793.0,STARLINK-3633,PAYLOAD,2023-02-11 03:28:56,15.08846647,0.0001488,53.2169,348.4263,79.0246,281.0914,8.343e-05,1.04e-05,0.0,0 STARLINK-3633,1 51793U 22017AB  23042.14510413  .00001040  00000-0  83430-4 0  9994,2 51793  53.2169 348.4263 0001488  79.0246 281.0914 15.08846647 54500,6917.86,95.437,540.754,538.696,0.0
51793.0,STARLINK-3633,PAYLOAD,2023-02-11 20:58:12,15.08845115,9.96e-05,53.2173,345.1569,83.4919,276.6186,-0.00011669,-2.145e-05,0.0,0 STARLINK-3633,1 51793U 22017AB  23042.87375399 -.00002145  00000-0 -11669-3 0  9999,2 51793  53.2173 345.1569 0000996  83.4919 276.6186 15.08845115 54619,6917.865,95.437,540.419,539.041,0.0
51793.0,STARLINK-3633,PAYLOAD,2023-02-12 06:30:30,15.08846853,0.0002543,53.2157,343.3689,111.7451,248.3812,-0.00010135,-1.902e-05,0.0,0 STARLINK-3633,1 51793U 22017AB  23043.27119015 -.00001902  00000-0 -10135-3 0  9992,2 51793  53.2157 343.3689 0002543 111.7451 248.3812 15.08846853 54678,6917.859,95.437,541.484,537.965,0.0
51793.0,STARLINK-3633,PAYLOAD,2023-02-13 04:45:55,15.0883312,2.97e-05,53.2163,339.2095,134.0222,226.0794,-0.00012442,-2.267e-05,0.0,0 STARLINK-3633,1 51793U 22017AB  23044.19855958 -.00002267  00000-0 -12442-3 0  9995,2 51793  53.2163 339.2095 0000297 134.0222 226.0794 15.08833120 54819,6917.901,95.438,539.972,539.561,0.0
51793.0,STARLINK-3633,PAYLOAD,2023-02-13 12:42:51,15.08839064,0.0001113,53.2161,337.7221,68.6448,291.4662,-7.4233e-05,-1.469e-05,0.0,0 STARLINK-3633,1 51793U 22017AB  23044.52975950 -.00001469  00000-0 -74233-4 0  9997,2 51793  53.2161 337.7221 0001113  68.6448 291.4662 15.08839064 54869,6917.883,95.438,540.518,538.978,0.0
51793.0,STARLINK-3633,PAYLOAD,2023-02-14 04:36:41,15.08857874,0.000147,53.2169,334.747,84.1037,276.0122,0.00017712,2.533e-05,0.0,0 STARLINK-3633,1 51793U 22017AB  23045.19214506  .00002533  00000-0  17712-3 0  9993,2 51793  53.2169 334.7470 0001470  84.1037 276.0122 15.08857874 54963,6917.826,95.436,540.708,538.674,0.0
51793.0,STARLINK-3633,PAYLOAD,2023-02-14 12:33:38,15.08843702,0.0001707,53.2167,333.2614,88.3169,271.8019,3.3337e-05,2.43e-06,0.0,0 STARLINK-3633,1 51793U 22017AB  23045.52335729  .00000243  00000-0  33337-4 0  9999,2 51793  53.2167 333.2614 0001707  88.3169 271.8019 15.08843702 55010,6917.869,95.437,540.915,538.553,0.0
51793.0,STARLINK-3633,PAYLOAD,2023-02-15 12:24:25,15.08843745,0.000144,53.2157,328.7997,59.9763,300.1372,0.00014368,2e-05,0.0,0 STARLINK-3633,1 51793U 22017AB  23046.51695767  .00002000  00000-0  14368-3 0  9995,2 51793  53.2157 328.7997 0001440  59.9763 300.1372 15.08843745 55161,6917.869,95.437,540.73,538.738,0.0
51793.0,STARLINK-3633,PAYLOAD,2023-02-15 21:56:44,15.088429,0.0001176,53.2154,327.0141,73.3419,286.7703,8.2341e-05,1.023e-05,0.0,0 STARLINK-3633,1 51793U 22017AB  23046.91439905  .00001023  00000-0  82341-4 0  9990,2 51793  53.2154 327.0141 0001176  73.3419 286.7703 15.08842900 55221,6917.872,95.437,540.55,538.923,0.0
51793.0,STARLINK-3633,PAYLOAD,2023-02-15 23:32:06,15.08852201,0.0001142,53.2149,326.7174,77.0865,283.0254,0.00016268,2.303e-05,0.0,0 STARLINK-3633,1 51793U 22017AB  23046.98063134  .00002303  00000-0  16268-3 0  9990,2 51793  53.2149 326.7174 0001142  77.0865 283.0254 15.08852201 55233,6917.843,95.437,540.498,538.918,0.0
51793.0,STARLINK-3633,PAYLOAD,2023-02-16 01:07:28,15.08870689,0.0001176,53.2155,326.4198,70.0535,290.0584,0.00012675,1.732e-05,0.0,0 STARLINK-3633,1 51793U 22017AB  23047.04685981  .00001732  00000-0  12675-3 0  9991,2 51793  53.2155 326.4198 0001176  70.0535 290.0584 15.08870689 55242,6917.787,95.436,540.465,538.838,0.0
51793.0,STARLINK-3633,PAYLOAD,2023-02-16 21:47:31,15.08834389,0.0001116,53.2162,322.5522,99.5201,260.5917,-4.7924e-06,-3.64e-06,0.0,0 STARLINK-3633,1 51793U 22017AB  23047.90800454 -.00000364  00000-0 -47924-5 0  9999,2 51793  53.2162 322.5522 0001116  99.5201 260.5917 15.08834389 55371,6917.898,95.438,540.535,538.991,0.0
51793.0,STARLINK-3633,PAYLOAD,2023-02-16 23:22:54,15.08834462,0.0001072,53.2159,322.2557,93.8411,266.2704,2.7562e-06,-2.44e-06,0.0,0 STARLINK-3633,1 51793U 22017AB  23047.97424493 -.00000244  00000-0  27562-5 0  9993,2 51793  53.2159 322.2557 0001072  93.8411 266.2704 15.08834462 55383,6917.897,95.438,540.504,539.021,0.0
51793.0,STARLINK-3633,PAYLOAD,2023-02-17 00:58:17,15.08843221,0.0001011,53.2154,321.9589,81.5532,278.5574,-7.3441e-05,-1.456e-05,0.0,0 STARLINK-3633,1 51793U 22017AB  23048.04048181 -.00001456  00000-0 -73441-4 0  9991,2 51793  53.2154 321.9589 0001011  81.5532 278.5574 15.08843221 55395,6917.871,95.437,540.435,539.036,0.0
51793.0,STARLINK-3633,PAYLOAD,2023-02-17 21:38:19,15.08823077,0.0001245,53.2156,318.0915,88.9703,271.1432,-9.0167e-05,-1.722e-05,0.0,0 STARLINK-3633,1 51793U 22017AB  23048.90161558 -.00001722  00000-0 -90167-4 0  9990,2 51793  53.2156 318.0915 0001245  88.9703 271.1432 15.08823077 55521,6917.932,95.439,540.658,538.936,0.0
51793.0,STARLINK-3633,PAYLOAD,2023-02-18 00:49:05,15.08837535,0.0001211,53.2153,317.4983,79.5081,280.6048,-0.00014203,-2.547e-05,0.0,0 STARLINK-3633,1 51793U 22017AB  23049.03409285 -.00002547  00000-0 -14203-3 0  9999,2 51793  53.2153 317.4983 0001211  79.5081 280.6048 15.08837535 55548,6917.888,95.438,540.591,538.915,0.0
51793.0,STARLINK-3633,PAYLOAD,2023-02-19 00:39:51,15.08848177,0.0001159,53.2155,313.0389,72.9043,287.2076,0.00022695,3.327e-05,0.0,0 STARLINK-3633,1 51793U 22017AB  23050.02768346  .00003327  00000-0  22695-3 0  9995,2 51793  53.2155 313.0389 0001159  72.9043 287.2076 15.08848177 55692,6917.855,95.437,540.522,538.919,0.0
51793.0,STARLINK-3633,PAYLOAD,2023-02-19 10:12:10,15.08845672,0.0001189,53.2149,311.256,82.9482,277.1646,0.00012074,1.635e-05,0.0,0 STARLINK-3633,1 51793U 22017AB  23050.42512659  .00001635  00000-0  12074-3 0  9993,2 51793  53.2149 311.2560 0001189  82.9482 277.1646 15.08845672 55752,6917.863,95.437,540.551,538.906,0.0
51793.0,STARLINK-3633,PAYLOAD,2023-02-19 16:33:44,15.08720552,0.0002117,53.2148,310.0679,88.4051,271.7184,0.0017891,0.00028207,0.0,0 STARLINK-3633,1 51793U 22017AB  23050.69010301  .00028207  00000-0  17891-2 0  9994,2 51793  53.2148 310.0679 0002117  88.4051 271.7184 15.08720552 55794,6918.246,95.445,541.575,538.646,0.0
51793.0,STARLINK-3633,PAYLOAD,2023-02-19 22:55:18,15.08747547,0.0001826,53.2141,308.8779,91.8071,268.313,0.0013989,0.00021989,0.0,0 STARLINK-3633,1 51793U 22017AB  23050.95507244  .00021989  00000-0  13989-2 0  9994,2 51793  53.2141 308.8779 0001826  91.8071 268.3130 15.08747547 55830,6918.163,95.443,541.291,538.765,0.0
51793.0,STARLINK-3633,PAYLOAD,2023-02-20 00:30:39,15.08843378,0.0001314,53.2143,308.5795,89.5981,270.5162,0.000163,2.307e-05,0.0,0 STARLINK-3633,1 51793U 22017AB  23051.02128985  .00002307  00000-0  16300-3 0  9998,2 51793  53.2143 308.5795 0001314  89.5981 270.5162 15.08843378 55843,6917.87,95.437,540.644,538.826,0.0
51793.0,STARLINK-3633,PAYLOAD,2023-02-20 11:38:21,15.08844445,0.0001392,53.2142,306.4975,79.328,280.7869,8.0454e-05,9.93e-06,0.0,0 STARLINK-3633,1 51793U 22017AB  23051.48497061  .00000993  00000-0  80454-4 0  9993,2 51793  53.2142 306.4975 0001392  79.3280 280.7869 15.08844445 55915,6917.867,95.437,540.695,538.769,0.0
